0 COSMOS 1995
1 19786U 89009B   13281.48611438  .00000064  00000-0  29814-3 0  7015
2 19786 082.6197 087.6102 0003874 164.3022 248.5853 12.62099009135855
0 COSMOS 1995
1 19786U 89009B   13283.80201326  .00000055  00000-0  24750-3 0  7029
2 19786 082.6198 086.1412 0003952 160.1074 329.9485 12.62099385136147
0 COSMOS 1995
1 19786U 89009B   13285.87227275  .00000012  00000-0  81112-5 0  7030
2 19786 082.6202 084.8279 0004037 155.5704 016.1343 12.62099644136407
0 COSMOS 1995
1 19786U 89009B   13288.46218884 -.00000001  00000-0 -66688-4 0  7045
2 19786 082.6208 083.1851 0004073 151.6432 261.6252 12.62099749136734
0 COSMOS 1995
1 19786U 89009B   13290.77670894  .00000033  00000-0  12780-3 0  7052
2 19786 082.6214 081.7173 0004134 147.3690 336.8128 12.62099668137028
0 COSMOS 1995
1 19786U 89009B   13293.15411517  .00000056  00000-0  25451-3 0  7067
2 19786 082.6217 080.2095 0004231 142.6610 338.0175 12.62099595137324
0 COSMOS 1995
1 19786U 89009B   13295.36007103  .00000046  00000-0  19663-3 0  7072
2 19786 082.6218 078.8107 0004275 138.8534 279.7132 12.62099562137601
